[{"OBJECT_NAME":"STARLINK-4374","OBJECT_ID":"2022-105E","EPOCH":"2026-03-09T15:18:04.365792","MEAN_MOTION":15.01282479,"ECCENTRICITY":5.04e-5,"INCLINATION":97.6019,"RA_OF_ASC_NODE":310.1527,"ARG_OF_PERICENTER":99.6561,"MEAN_ANOMALY":260.4721,"EPHEMERIS_TYPE":0,"CLASSIFICATION_TYPE":"U","NORAD_CAT_ID":53652,"ELEMENT_SET_NO":999,"REV_AT_EPOCH":19322,"BSTAR":0.0002926,"MEAN_MOTION_DOT":3.704e-5,"MEAN_MOTION_DDOT":0},{"OBJECT_NAME":"PEGASUS DEB","OBJECT_ID":"1994-029FZ","EPOCH":"2026-03-09T12:36:59.566752","MEAN_MOTION":14.41175502,"ECCENTRICITY":0.02757153,"INCLINATION":81.7972,"RA_OF_ASC_NODE":78.8441,"ARG_OF_PERICENTER":112.9537,"MEAN_ANOMALY":15.5013,"EPHEMERIS_TYPE":0,"CLASSIFICATION_TYPE":"U","NORAD_CAT_ID":24126,"ELEMENT_SET_NO":999,"REV_AT_EPOCH":53960,"BSTAR":0.0010536774,"MEAN_MOTION_DOT":5.383e-5,"MEAN_MOTION_DDOT":0}]
